FENGYUN 1C DEB          
1 30571U 99025ALM 17345.91908659 -.00000020  00000-0  14760-4 0  9993
2 30571  99.0543   6.7660 0021627 178.2297 301.1853 14.08556014557223
